OBJECT_NAME,OBJECT_ID,EPOCH,MEAN_MOTION,ECCENTRICITY,INCLINATION,RA_OF_ASC_NODE,ARG_OF_PERICENTER,MEAN_ANOMALY,EPHEMERIS_TYPE,CLASSIFICATION_TYPE,NORAD_CAT_ID,ELEMENT_SET_NO,REV_AT_EPOCH,BSTAR,MEAN_MOTION_DOT,MEAN_MOTION_DDOT
LEMUR-2-STARLIGHT,2025-276DY,2026-07-11T17:34:14.438784,14.99328464,.0014759,97.5233,262.5314,57.4560,302.8087,0,U,66783,999,3387,.31969E-3,.3858E-4,0
LEMUR-2-TARTIFLETTE,2025-276DZ,2026-07-11T17:31:53.409792,14.99314524,.0013861,97.5236,262.5376,65.4884,294.7783,0,U,66784,999,3387,.28252E-3,.3401E-4,0
LEMUR-2-VUKASIN,2025-276EA,2026-07-11T18:29:14.924832,15.00527711,.0003578,97.5240,262.9290,64.9856,295.1739,0,U,66785,999,3383,.23704E-3,.2931E-4,0
LEMUR-2-HOTSPUR-TOM,2025-276EB,2026-07-11T17:23:30.410592,14.99219626,.0013835,97.5223,262.5077,56.6609,303.5937,0,U,66786,999,3380,.26466E-3,.3174E-4,0
LEMUR-2-MYRA,2025-276EC,2026-07-11T17:39:17.777088,15.00564390,.0018537,97.5222,262.8153,64.7520,295.5623,0,U,66787,999,3389,.28885E-3,.36E-4,0
TWILIGHT-1 OBJECT B,2026-004B,2026-07-11T12:08:26.049120,14.87785770,.00099555,97.8072,190.6963,56.5620,303.6547,0,U,67364,999,2690,.11821451E-3,.1025E-4,0
LEMUR-2-MARIO-SOUSA,2026-004C,2026-07-11T14:02:51.840672,14.88708670,.0010007,97.7995,190.7666,67.2731,292.9543,0,U,67365,999,2692,.25391E-3,.2318E-4,0
LEMUR-2-SONNENBLUME,2026-004E,2026-07-11T18:56:26.631168,14.88442703,.0009559,97.7998,190.9418,67.7455,292.4775,0,U,67367,999,2695,.17247E-3,.1547E-4,0
